CCSDS_OMM_VERS = 2.0
CREATION_DATE  = 
ORIGINATOR     = 

OBJECT_NAME    = STARLINK-35900
OBJECT_ID      = 2025-283J
CENTER_NAME    = EARTH
REF_FRAME      = TEME
TIME_SYSTEM    = UTC
MEAN_ELEMENT_THEORY = SGP/SGP4

EPOCH          = 2025-12-18T22:00:00.999936
MEAN_MOTION    = 15.77800091
ECCENTRICITY   = .00010354
INCLINATION    = 53.1556
RA_OF_ASC_NODE = 42.7452
ARG_OF_PERICENTER = 77.1880
MEAN_ANOMALY   = 153.9564

EPHEMERIS_TYPE = 0
CLASSIFICATION_TYPE = U
NORAD_CAT_ID   = 66886
ELEMENT_SET_NO = 999
REV_AT_EPOCH   = 342
BSTAR          = -.91129957E-2
MEAN_MOTION_DOT = -.1391528E-1
MEAN_MOTION_DDOT = 0

CCSDS_OMM_VERS = 2.0
CREATION_DATE  = 
ORIGINATOR     = 

OBJECT_NAME    = STARLINK-35925
OBJECT_ID      = 2025-283K
CENTER_NAME    = EARTH
REF_FRAME      = TEME
TIME_SYSTEM    = UTC
MEAN_ELEMENT_THEORY = SGP/SGP4

EPOCH          = 2025-12-18T22:00:00.999936
MEAN_MOTION    = 15.77747859
ECCENTRICITY   = .00008746
INCLINATION    = 53.1559
RA_OF_ASC_NODE = 42.7411
ARG_OF_PERICENTER = 79.3764
MEAN_ANOMALY   = 153.9763

EPHEMERIS_TYPE = 0
CLASSIFICATION_TYPE = U
NORAD_CAT_ID   = 66887
ELEMENT_SET_NO = 999
REV_AT_EPOCH   = 342
BSTAR          = -.91859151E-2
MEAN_MOTION_DOT = -.1398391E-1
MEAN_MOTION_DDOT = 0

CCSDS_OMM_VERS = 2.0
CREATION_DATE  = 
ORIGINATOR     = 

OBJECT_NAME    = STARLINK-35919
OBJECT_ID      = 2025-283L
CENTER_NAME    = EARTH
REF_FRAME      = TEME
TIME_SYSTEM    = UTC
MEAN_ELEMENT_THEORY = SGP/SGP4

EPOCH          = 2025-12-18T22:00:00.999936
MEAN_MOTION    = 15.77698807
ECCENTRICITY   = .00007816
INCLINATION    = 53.1559
RA_OF_ASC_NODE = 42.7361
ARG_OF_PERICENTER = 73.5571
MEAN_ANOMALY   = 161.9931

EPHEMERIS_TYPE = 0
CLASSIFICATION_TYPE = U
NORAD_CAT_ID   = 66888
ELEMENT_SET_NO = 999
REV_AT_EPOCH   = 342
BSTAR          = -.92772153E-2
MEAN_MOTION_DOT = -.14079E-1
MEAN_MOTION_DDOT = 0

CCSDS_OMM_VERS = 2.0
CREATION_DATE  = 
ORIGINATOR     = 

OBJECT_NAME    = STARLINK-35852
OBJECT_ID      = 2025-283M
CENTER_NAME    = EARTH
REF_FRAME      = TEME
TIME_SYSTEM    = UTC
MEAN_ELEMENT_THEORY = SGP/SGP4

EPOCH          = 2025-12-18T22:00:00.999936
MEAN_MOTION    = 15.77619290
ECCENTRICITY   = .00010633
INCLINATION    = 53.1553
RA_OF_ASC_NODE = 42.7308
ARG_OF_PERICENTER = 76.6398
MEAN_ANOMALY   = 161.2447

EPHEMERIS_TYPE = 0
CLASSIFICATION_TYPE = U
NORAD_CAT_ID   = 66889
ELEMENT_SET_NO = 999
REV_AT_EPOCH   = 342
BSTAR          = -.9419167E-2
MEAN_MOTION_DOT = -.1422614E-1
MEAN_MOTION_DDOT = 0

CCSDS_OMM_VERS = 2.0
CREATION_DATE  = 
ORIGINATOR     = 

OBJECT_NAME    = STARLINK-35885
OBJECT_ID      = 2025-283N
CENTER_NAME    = EARTH
REF_FRAME      = TEME
TIME_SYSTEM    = UTC
MEAN_ELEMENT_THEORY = SGP/SGP4

EPOCH          = 2025-12-18T22:00:00.999936
MEAN_MOTION    = 15.77558007
ECCENTRICITY   = .00008273
INCLINATION    = 53.1557
RA_OF_ASC_NODE = 42.7264
ARG_OF_PERICENTER = 76.8004
MEAN_ANOMALY   = 163.3544

EPHEMERIS_TYPE = 0
CLASSIFICATION_TYPE = U
NORAD_CAT_ID   = 66890
ELEMENT_SET_NO = 999
REV_AT_EPOCH   = 342
BSTAR          = -.96532072E-2
MEAN_MOTION_DOT = -.1450152E-1
MEAN_MOTION_DDOT = 0

CCSDS_OMM_VERS = 2.0
CREATION_DATE  = 
ORIGINATOR     = 

OBJECT_NAME    = STARLINK-35855
OBJECT_ID      = 2025-283P
CENTER_NAME    = EARTH
REF_FRAME      = TEME
TIME_SYSTEM    = UTC
MEAN_ELEMENT_THEORY = SGP/SGP4

EPOCH          = 2025-12-18T22:00:00.999936
MEAN_MOTION    = 15.77491834
ECCENTRICITY   = .00011659
INCLINATION    = 53.1558
RA_OF_ASC_NODE = 42.7217
ARG_OF_PERICENTER = 84.8963
MEAN_ANOMALY   = 157.5516

EPHEMERIS_TYPE = 0
CLASSIFICATION_TYPE = U
NORAD_CAT_ID   = 66891
ELEMENT_SET_NO = 999
REV_AT_EPOCH   = 342
BSTAR          = -.10002774E-1
MEAN_MOTION_DOT = -.1492628E-1
MEAN_MOTION_DDOT = 0

CCSDS_OMM_VERS = 2.0
CREATION_DATE  = 
ORIGINATOR     = 

OBJECT_NAME    = STARLINK-35883
OBJECT_ID      = 2025-283Q
CENTER_NAME    = EARTH
REF_FRAME      = TEME
TIME_SYSTEM    = UTC
MEAN_ELEMENT_THEORY = SGP/SGP4

EPOCH          = 2025-12-18T22:00:00.999936
MEAN_MOTION    = 15.77419144
ECCENTRICITY   = .00007853
INCLINATION    = 53.1558
RA_OF_ASC_NODE = 42.7167
ARG_OF_PERICENTER = 79.8239
MEAN_ANOMALY   = 164.8754

EPHEMERIS_TYPE = 0
CLASSIFICATION_TYPE = U
NORAD_CAT_ID   = 66892
ELEMENT_SET_NO = 999
REV_AT_EPOCH   = 336
BSTAR          = -.10209958E-1
MEAN_MOTION_DOT = -.151513E-1
MEAN_MOTION_DDOT = 0

CCSDS_OMM_VERS = 2.0
CREATION_DATE  = 
ORIGINATOR     = 

OBJECT_NAME    = STARLINK-36033
OBJECT_ID      = 2025-283R
CENTER_NAME    = EARTH
REF_FRAME      = TEME
TIME_SYSTEM    = UTC
MEAN_ELEMENT_THEORY = SGP/SGP4

EPOCH          = 2025-12-18T22:00:00.999936
MEAN_MOTION    = 15.77349761
ECCENTRICITY   = .00008843
INCLINATION    = 53.1554
RA_OF_ASC_NODE = 42.7121
ARG_OF_PERICENTER = 79.2285
MEAN_ANOMALY   = 167.6830

EPHEMERIS_TYPE = 0
CLASSIFICATION_TYPE = U
NORAD_CAT_ID   = 66893
ELEMENT_SET_NO = 999
REV_AT_EPOCH   = 342
BSTAR          = -.10380328E-1
MEAN_MOTION_DOT = -.1533118E-1
MEAN_MOTION_DDOT = 0

CCSDS_OMM_VERS = 2.0
CREATION_DATE  = 
ORIGINATOR     = 

OBJECT_NAME    = STARLINK-35718
OBJECT_ID      = 2025-283S
CENTER_NAME    = EARTH
REF_FRAME      = TEME
TIME_SYSTEM    = UTC
MEAN_ELEMENT_THEORY = SGP/SGP4

EPOCH          = 2025-12-18T22:00:00.999936
MEAN_MOTION    = 15.77216081
ECCENTRICITY   = .00011382
INCLINATION    = 53.1556
RA_OF_ASC_NODE = 42.7074
ARG_OF_PERICENTER = 83.0993
MEAN_ANOMALY   = 166.2193

EPHEMERIS_TYPE = 0
CLASSIFICATION_TYPE = U
NORAD_CAT_ID   = 66894
ELEMENT_SET_NO = 999
REV_AT_EPOCH   = 342
BSTAR          = -.10551496E-1
MEAN_MOTION_DOT = -.154721E-1
MEAN_MOTION_DDOT = 0

CCSDS_OMM_VERS = 2.0
CREATION_DATE  = 
ORIGINATOR     = 

OBJECT_NAME    = STARLINK-35971
OBJECT_ID      = 2025-283T
CENTER_NAME    = EARTH
REF_FRAME      = TEME
TIME_SYSTEM    = UTC
MEAN_ELEMENT_THEORY = SGP/SGP4

EPOCH          = 2025-12-18T22:00:00.999936
MEAN_MOTION    = 15.77033638
ECCENTRICITY   = .00011448
INCLINATION    = 53.1554
RA_OF_ASC_NODE = 42.6972
ARG_OF_PERICENTER = 86.3846
MEAN_ANOMALY   = 167.3980

EPHEMERIS_TYPE = 0
CLASSIFICATION_TYPE = U
NORAD_CAT_ID   = 66895
ELEMENT_SET_NO = 999
REV_AT_EPOCH   = 342
BSTAR          = -.10796057E-1
MEAN_MOTION_DOT = -.1567203E-1
MEAN_MOTION_DDOT = 0

CCSDS_OMM_VERS = 2.0
CREATION_DATE  = 
ORIGINATOR     = 

OBJECT_NAME    = STARLINK-35791
OBJECT_ID      = 2025-283U
CENTER_NAME    = EARTH
REF_FRAME      = TEME
TIME_SYSTEM    = UTC
MEAN_ELEMENT_THEORY = SGP/SGP4

EPOCH          = 2025-12-18T22:00:00.999936
MEAN_MOTION    = 15.77111077
ECCENTRICITY   = .00008569
INCLINATION    = 53.1553
RA_OF_ASC_NODE = 42.7019
ARG_OF_PERICENTER = 75.8685
MEAN_ANOMALY   = 175.7305

EPHEMERIS_TYPE = 0
CLASSIFICATION_TYPE = U
NORAD_CAT_ID   = 66896
ELEMENT_SET_NO = 999
REV_AT_EPOCH   = 342
BSTAR          = -.10664013E-1
MEAN_MOTION_DOT = -.1554984E-1
MEAN_MOTION_DDOT = 0

CCSDS_OMM_VERS = 2.0
CREATION_DATE  = 
ORIGINATOR     = 

OBJECT_NAME    = STARLINK-36079
OBJECT_ID      = 2025-283V
CENTER_NAME    = EARTH
REF_FRAME      = TEME
TIME_SYSTEM    = UTC
MEAN_ELEMENT_THEORY = SGP/SGP4

EPOCH          = 2025-12-18T22:00:00.999936
MEAN_MOTION    = 15.76916031
ECCENTRICITY   = .00008852
INCLINATION    = 53.1555
RA_OF_ASC_NODE = 42.6928
ARG_OF_PERICENTER = 89.0348
MEAN_ANOMALY   = 167.0341

EPHEMERIS_TYPE = 0
CLASSIFICATION_TYPE = U
NORAD_CAT_ID   = 66897
ELEMENT_SET_NO = 999
REV_AT_EPOCH   = 342
BSTAR          = -.10902849E-1
MEAN_MOTION_DOT = -.1573256E-1
MEAN_MOTION_DDOT = 0

