STARLINK-35900          
1 66886U 25283J   25352.91667824 -.01391528  00000+0 -91130-2 0  9990
2 66886  53.1556  42.7452 0001035  77.1880 153.9564 15.77800091  3425
STARLINK-35925          
1 66887U 25283K   25352.91667824 -.01398391  00000+0 -91859-2 0  9994
2 66887  53.1559  42.7411 0000874  79.3764 153.9763 15.77747859  3422
STARLINK-35919          
1 66888U 25283L   25352.91667824 -.01407900  00000+0 -92772-2 0  9997
2 66888  53.1559  42.7361 0000781  73.5571 161.9931 15.77698807  3420
STARLINK-35852          
1 66889U 25283M   25352.91667824 -.01422614  00000+0 -94192-2 0  9995
2 66889  53.1553  42.7308 0001063  76.6398 161.2447 15.77619290  3425
STARLINK-35885          
1 66890U 25283N   25352.91667824 -.01450152  00000+0 -96532-2 0  9995
2 66890  53.1557  42.7264 0000827  76.8004 163.3544 15.77558007  3424
STARLINK-35855          
1 66891U 25283P   25352.91667824 -.01492628  00000+0 -10003-1 0  9998
2 66891  53.1558  42.7217 0001165  84.8963 157.5516 15.77491834  3421
STARLINK-35883          
1 66892U 25283Q   25352.91667824 -.01515130  00000+0 -10210-1 0  9993
2 66892  53.1558  42.7167 0000785  79.8239 164.8754 15.77419144  3365
STARLINK-36033          
1 66893U 25283R   25352.91667824 -.01533118  00000+0 -10380-1 0  9998
2 66893  53.1554  42.7121 0000884  79.2285 167.6830 15.77349761  3427
STARLINK-35718          
1 66894U 25283S   25352.91667824 -.01547210  00000+0 -10551-1 0  9997
2 66894  53.1556  42.7074 0001138  83.0993 166.2193 15.77216081  3424
STARLINK-35971          
1 66895U 25283T   25352.91667824 -.01567203  00000+0 -10796-1 0  9993
2 66895  53.1554  42.6972 0001144  86.3846 167.3980 15.77033638  3420
STARLINK-35791          
1 66896U 25283U   25352.91667824 -.01554984  00000+0 -10664-1 0  9990
2 66896  53.1553  42.7019 0000856  75.8685 175.7305 15.77111077  3424
STARLINK-36079          
1 66897U 25283V   25352.91667824 -.01573256  00000+0 -10903-1 0  9990
2 66897  53.1555  42.6928 0000885  89.0348 167.0341 15.76916031  3426
